OBJECT_NAME,OBJECT_ID,EPOCH,MEAN_MOTION,ECCENTRICITY,INCLINATION,RA_OF_ASC_NODE,ARG_OF_PERICENTER,MEAN_ANOMALY,EPHEMERIS_TYPE,CLASSIFICATION_TYPE,NORAD_CAT_ID,ELEMENT_SET_NO,REV_AT_EPOCH,BSTAR,MEAN_MOTION_DOT,MEAN_MOTION_DDOT
INTELSAT 23 (IS-23),2012-057A,2026-07-13T11:30:05.650848,1.00273947,.0000331,0.0143,19.2691,174.9440,216.6691,0,U,38867,999,5021,0,-.288E-5,0
FM-6,2013-058A,2026-07-13T11:17:38.747040,1.00270111,.000131,0.0134,30.6812,146.9618,166.7577,0,U,39360,999,4633,0,-.19E-6,0
INTELSAT 30 (IS-30),2014-062A,2026-07-12T19:54:01.234080,1.00273200,.00011997,0.0165,46.9734,336.3929,110.8103,0,U,40271,999,705,0,-.152E-5,0
DIRECTV 14,2014-078B,2026-07-13T04:26:13.159392,1.00270023,.0000254,0.0147,48.5403,253.7402,316.0900,0,U,40333,999,4230,0,-.127E-5,0
DIRECTV 15,2015-026A,2026-07-13T12:21:38.617920,1.00272384,.0000066,0.0179,71.5022,256.9146,45.5133,0,U,40663,999,4072,0,-.106E-5,0
SKY MEXICO-1,2015-026B,2026-07-13T11:22:43.857408,1.00270470,.0002324,0.0184,23.6910,111.6737,247.8665,0,U,40664,999,4071,0,-.238E-5,0
INTELSAT 34 (IS-34),2015-039A,2026-07-13T02:29:54.049920,1.00271511,.0000492,0.0107,1.3438,353.9217,277.7081,0,U,40874,999,3989,0,-.287E-5,0
INTELSAT 31 (IS-31),2016-035A,2026-07-13T04:27:28.037952,1.00271434,.0001139,0.0160,289.2103,354.6494,339.0259,0,U,41581,999,3694,0,-.153E-5,0
INTELSAT 36 (IS-36),2016-053A,2026-07-13T12:04:39.835776,1.00270075,.00025,0.0103,19.8867,320.6602,200.4802,0,U,41747,999,3622,0,-.28E-6,0
INTELSAT 32E (IS-32E),2017-007B,2026-07-13T02:59:34.700352,1.00269412,.00004255,0.0250,44.8942,284.8742,322.9651,0,U,41945,999,3448,0,0,0
INTELSAT 35E (IS-35E),2017-041A,2026-07-12T21:54:05.343840,1.00269769,.00015813,0.0167,45.3733,65.1012,114.3450,0,U,42818,999,3307,0,-.239E-5,0
INTELSAT 37E (IS-37E),2017-059A,2026-07-13T00:48:38.471040,1.00270449,.00024848,0.0156,71.5028,47.5543,166.0149,0,U,42950,999,3232,0,-.143E-5,0
AZERSPACE 2 (IS-38),2018-074A,2026-07-13T11:58:02.971200,1.00269797,.0001228,0.0257,44.2154,77.9656,33.8263,0,U,43632,999,2871,0,0,0
HORIZONS-3E,2018-074B,2026-07-13T12:05:38.782176,1.00269676,.0000927,0.0496,224.9171,51.5280,5.3422,0,U,43633,999,2860,0,-.35E-6,0
AT&T T-16,2019-034A,2026-07-13T12:21:38.617920,1.00268521,.0000629,0.0137,58.5667,259.4075,57.9662,0,U,44333,999,2589,0,-.119E-5,0
INTELSAT 39 (IS-39),2019-049B,2026-07-13T12:02:55.004064,1.00269592,.0000931,0.0272,48.3641,279.4001,206.2973,0,U,44476,999,2539,0,0,0
GALAXY 30 (G-30),2020-056C,2026-07-13T11:17:38.747040,1.00271249,.0001952,0.0176,36.3156,78.2750,221.1584,0,U,46114,999,2155,0,.33E-6,0
GALAXY 33 (G-33),2022-128A,2026-07-13T11:25:38.675712,1.00271555,.0001757,0.0134,21.0488,99.1028,209.6088,0,U,54026,999,1400,0,.75E-6,0
GALAXY 34 (G-34),2022-128B,2026-07-13T11:08:22.731936,1.00270023,.0001292,0.0250,26.9480,107.3515,195.1368,0,U,54027,999,1417,0,0,0
GALAXY 31 (G-31),2022-153A,2026-07-13T11:10:45.005088,1.00270686,.0000948,0.0175,66.5786,53.0891,218.3447,0,U,54243,999,739,0,.1E-6,0
GALAXY 32 (G-32),2022-153B,2026-07-13T12:13:38.932032,1.00269974,.00014,0.0121,29.6563,18.1075,336.0269,0,U,54244,999,1340,0,-.178E-5,0
GALAXY 35 (G-35),2022-170A,2026-07-13T11:18:36.750816,1.00268681,.0001904,0.0252,64.0561,52.9233,250.9190,0,U,54741,999,1315,0,0,0
GALAXY 36 (G-36),2022-170B,2026-07-13T11:19:51.631104,1.00270898,.0002391,0.0203,215.8463,244.3920,272.0747,0,U,54742,999,1303,0,-.189E-5,0
GALAXY 37 (G-37),2023-112A,2026-07-13T11:42:09.212832,1.00271178,.0001739,0.0205,72.0614,45.1961,222.6371,0,U,57493,999,1080,0,.44E-6,0
